CID,State,ZIP,Region,loyaltyProgram,buyerRating,buyerSatisfaction
1700,MT,59821,West,Yes,Excellent,4
850,ND,58068,Midwest,Yes,Excellent,4
280,NY,10007,Northeast,Yes,Excellent,3
1574,WY,83120,West,No,Good,4
110,CO,80403,West,Yes,Excellent,4
854,MI,49307,Midwest,Yes,Poor,4
799,MO,65740,Midwest,Yes,Good,4
818,MO,63628,Midwest,Yes,Good,3
126,NV,89046,West,Yes,Excellent,2
2393,NE,68743,Midwest,Yes,Excellent,3
907,MN,56385,Midwest,No,Poor,4
836,NE,68358,Midwest,Yes,Poor,3
1667,PA,16034,Northeast,Yes,Excellent,4
1922,SD,57312,Midwest,Yes,Excellent,4
1766,PA,15237,Northeast,Yes,Good,4
1329,OR,97630,West,Yes,Excellent,4
136,NV,89118,West,Yes,Excellent,4
1809,UT,84336,West,Yes,Excellent,4
1485,CA,95117,West,Yes,Excellent,1
494,CA,93226,West,Yes,Good,5
1643,NM,88424,West,Yes,Good,3
1656,KS,67669,Midwest,Yes,Good,4
1799,NJ,7857,Northeast,Yes,Good,4
121,NM,87418,West,No,Good,4
997,AL,36529,South,Yes,Good,5
174,ID,83444,West,Yes,Excellent,4
932,IL,61453,Midwest,Yes,Excellent,4
852,IA,50655,Midwest,Yes,Excellent,1
1015,MI,49093,Midwest,Yes,Good,2
990,WI,53930,Midwest,Yes,Good,2
55,NY,14032,Northeast,Yes,Excellent,4
1967,AZ,85935,West,Yes,Excellent,4
471,OR,97221,West,Yes,Good,5
2330,WA,99217,West,Yes,Excellent,3
1795,MO,64744,Midwest,Yes,Poor,5
1956,AZ,85220,West,Yes,Good,3
1547,OH,44853,Midwest,Yes,Excellent,4
2411,IN,46814,Midwest,Yes,Excellent,4
1106,CA,96105,West,Yes,Good,5
2353,LA,71075,South,Yes,Good,3
2347,MN,55119,Midwest,Yes,Good,4
2603,OK,73628,South,Yes,Good,5
877,KS,67109,Midwest,Yes,Excellent,4
133,CO,80019,West,Yes,Excellent,4
1287,TX,76882,South,Yes,Excellent,4
503,CA,93943,West,Yes,Excellent,1
502,CA,92336,West,No,Good,3
1049,NC,28621,South,Yes,Excellent,4
1235,OH,43318,Midwest,Yes,Excellent,4
1037,WI,54963,Midwest,Yes,Excellent,4
2397,FL,32210,South,Yes,Good,4
2060,CA,90260,West,Yes,Excellent,2
2375,MN,55909,Midwest,Yes,Excellent,1
1144,OK,73549,South,Yes,Excellent,1
501,WA,98003,West,Yes,Excellent,2
493,CA,90242,West,Yes,Excellent,5
2465,GA,31023,South,Yes,Good,4
2018,AZ,85708,West,Yes,Poor,2
912,KS,66716,Midwest,Yes,Good,4
156,CO,80102,West,Yes,Good,4
2380,WA,98662,West,Yes,Good,4
2490,AR,71835,South,Yes,Poor,4
1831,NJ,7457,Northeast,Yes,Excellent,4
1041,MI,48906,Midwest,Yes,Excellent,3
2072,TX,75149,South,Yes,Excellent,3
2425,TN,38132,South,Yes,Good,4
1392,OR,97214,West,Yes,Good,4
1205,KS,67952,Midwest,Yes,Good,4
397,NM,87832,West,Yes,Excellent,5
2552,GA,31217,South,No,Excellent,4
473,ID,83243,West,Yes,Excellent,3
584,NY,14879,Northeast,Yes,Good,4
1241,WV,25143,South,Yes,Good,4
1350,NC,28202,South,Yes,Excellent,4
1878,WY,82520,West,Yes,Excellent,4
400,CO,80120,West,Yes,Excellent,4
410,CO,81090,West,Yes,Excellent,3
1113,IA,52345,Midwest,Yes,Excellent,4
1171,FL,33890,South,Yes,Poor,4
1151,MO,63769,Midwest,Yes,Excellent,4
2531,NE,68748,Midwest,No,Poor,4
2495,KY,41571,South,Yes,Good,4
1186,WI,54846,Midwest,Yes,Good,4
810,CA,93536,West,Yes,Excellent,5
1975,PA,15017,Northeast,Yes,Good,4
2309,AZ,85131,West,Yes,Good,2
925,WV,25515,South,Yes,Excellent,4
2169,SD,57015,Midwest,No,Excellent,4
2051,PA,18644,Northeast,Yes,Good,4
1213,VA,22469,South,Yes,Poor,4
2331,TX,78041,South,Yes,Excellent,5
2313,CA,95562,West,No,Good,3
2078,MO,63530,Midwest,Yes,Good,2
2480,MN,55718,Midwest,Yes,Excellent,2
1945,KS,67578,Midwest,Yes,Poor,4
2097,NJ,8344,Northeast,No,Excellent,4
2075,LA,70759,South,Yes,Good,4
1315,AL,36912,South,Yes,Excellent,2
1130,ND,58792,Midwest,Yes,Good,2
1249,SC,29547,South,Yes,Excellent,1
1070,MI,48328,Midwest,Yes,Excellent,5
2608,TX,77010,South,Yes,Excellent,4
2028,MS,39039,South,No,Excellent,4
1064,MO,64631,Midwest,Yes,Good,4
1306,MI,48015,Midwest,Yes,Good,3
402,NV,89429,West,Yes,Excellent,3
1173,FL,33540,South,Yes,Good,2
1302,WI,53098,Midwest,Yes,Poor,2
1190,NE,69149,Midwest,Yes,Poor,2
1660,OR,97394,West,Yes,Excellent,1
1029,AL,36540,South,Yes,Excellent,4
392,NV,89801,West,Yes,Good,4
2076,UT,84325,West,Yes,Good,2
1149,CA,92127,West,Yes,Excellent,2
1943,NM,87120,West,Yes,Excellent,5
2485,WA,98164,West,Yes,Poor,4
1883,DC,20020,South,Yes,Excellent,4
2466,MD,21838,South,Yes,Good,4
2003,MT,59833,West,Yes,Excellent,2
1858,NC,27023,South,Yes,Excellent,4
974,SC,29340,South,Yes,Excellent,4
1200,MN,56287,Midwest,Yes,Poor,1
1391,OK,73082,South,Yes,Good,4
774,WA,98406,West,Yes,Excellent,3
2116,NC,28708,South,Yes,Good,4
736,CA,93313,West,Yes,Excellent,4
2243,AZ,86413,West,Yes,Excellent,4
1609,TX,78641,South,Yes,Excellent,3
1418,CA,93065,West,Yes,Poor,5
785,OR,97874,West,Yes,Excellent,3
783,CA,95386,West,Yes,Excellent,4
1602,OH,44084,Midwest,Yes,Poor,4
1707,MS,38619,South,Yes,Excellent,4
1629,DC,20011,South,Yes,Excellent,5
442,CO,80514,West,Yes,Excellent,3
870,WI,53806,Midwest,Yes,Excellent,4
843,CA,95638,West,Yes,Poor,4
2512,IN,46614,Midwest,Yes,Excellent,4
2102,MS,38628,South,Yes,Good,4
1246,MN,56435,Midwest,Yes,Excellent,4
2471,LA,70544,South,Yes,Good,4
2501,FL,33957,South,Yes,Good,4
1879,CA,95573,West,Yes,Excellent,4
2567,GA,30132,South,Yes,Poor,1
2479,MD,21557,South,Yes,Good,3
1156,IA,50167,Midwest,Yes,Excellent,4
1140,MO,65324,Midwest,Yes,Excellent,4
2508,KY,42280,South,Yes,Excellent,5
2011,PA,19425,Northeast,Yes,Good,4
1584,TX,79057,South,Yes,Excellent,4
1145,MI,49686,Midwest,Yes,Good,2
2572,AR,72047,South,Yes,Excellent,1
913,VA,24520,South,Yes,Good,4
1245,VA,24340,South,Yes,Excellent,4
2108,MO,65807,Midwest,Yes,Poor,1
1236,IL,60622,Midwest,Yes,Excellent,4
1833,OH,45247,Midwest,Yes,Excellent,4
2529,TN,37385,South,Yes,Excellent,1
432,CO,80266,West,Yes,Excellent,4
2357,MD,20779,South,Yes,Excellent,4
890,FL,33853,South,Yes,Excellent,4
1346,TX,77024,South,Yes,Good,3
2621,OK,73173,South,Yes,Excellent,4
2355,TX,76636,South,Yes,Good,5
1669,TX,78656,South,Yes,Good,4
2611,TX,75433,South,Yes,Poor,3
936,FL,32208,South,Yes,Excellent,4
777,CA,95664,West,Yes,Good,1
2295,TX,79068,South,Yes,Excellent,5
1451,OK,74074,South,Yes,Good,4
1274,TX,76858,South,Yes,Poor,4
2406,KY,40402,South,No,Excellent,4
2144,TX,75040,South,Yes,Excellent,4
973,MN,55771,Midwest,Yes,Excellent,2
215,ID,83525,West,Yes,Good,2
1607,WY,82831,West,Yes,Good,2
2437,NE,69042,Midwest,Yes,Good,4
1813,PA,15784,Northeast,Yes,Excellent,4
1692,KS,67757,Midwest,Yes,Excellent,4
559,CA,95765,West,Yes,Good,2
155,NV,89311,West,Yes,Excellent,4
1719,PA,16148,Northeast,Yes,Excellent,4
1693,NM,87122,West,No,Excellent,4
150,NM,88324,West,No,Excellent,4
860,MO,65633,Midwest,Yes,Poor,4
1536,CA,94801,West,Yes,Good,4
1003,IL,62803,Midwest,Yes,Excellent,1
524,OR,97250,West,Yes,Good,4
1744,MT,59414,West,Yes,Good,2
2368,LA,70773,South,Yes,Good,4
1773,MS,38826,South,Yes,Excellent,3
931,FL,33548,South,Yes,Good,4
1169,OK,74085,South,Yes,Excellent,3
1231,WI,54873,Midwest,Yes,Excellent,4
2142,UT,84717,West,Yes,Good,4
1987,NM,87575,West,Yes,Good,5
2047,MT,59736,West,Yes,Good,3
1386,AL,36266,South,Yes,Excellent,4
1184,ND,58559,Midwest,Yes,Good,5
617,NY,10921,Northeast,Yes,Good,3
1237,FL,33449,South,Yes,Excellent,4
2106,PA,19567,Northeast,Yes,Excellent,4
1722,OR,97148,West,Yes,Excellent,4
500,ID,83314,West,Yes,Good,2
2323,TX,77084,South,Yes,Excellent,3
2232,SD,57105,Midwest,Yes,Good,3
2333,CA,91911,West,Yes,Poor,5
1261,KS,67475,Midwest,Yes,Good,4
2120,LA,71461,South,Yes,Poor,1
2569,TX,78884,South,Yes,Excellent,2
1276,SC,29030,South,Yes,Good,4
1206,MO,65793,Midwest,Yes,Poor,4
2538,TN,38585,South,Yes,Excellent,1
1951,DC,20374,South,Yes,Good,2
1289,IL,61448,Midwest,Yes,Excellent,4
2167,NC,28752,South,No,Excellent,3
2524,IN,47246,Midwest,Yes,Excellent,4
1820,LA,70632,South,Yes,Good,3
2607,OK,74525,South,Yes,Excellent,4
889,NE,68644,Midwest,Yes,Excellent,4
885,MO,64133,Midwest,No,Good,3
1852,UT,84304,West,Yes,Good,5
1834,MO,64483,Midwest,Yes,Good,4
2389,MN,55441,Midwest,Yes,Poor,3
2016,AZ,85294,West,Yes,Good,4
2429,IN,47546,Midwest,Yes,Poor,5
523,WA,99109,West,Yes,Good,5
1966,SD,57231,Midwest,Yes,Poor,4
169,NV,89820,West,Yes,Excellent,4
937,KS,67117,Midwest,Yes,Good,4
538,CA,91207,West,Yes,Good,2
908,IA,51031,Midwest,Yes,Good,4
2442,TN,37304,South,Yes,Excellent,3
1071,NC,27406,South,Yes,Excellent,4
1305,TX,78660,South,Yes,Poor,4
1927,WY,82054,West,Yes,Poor,4
2276,AZ,86326,West,Yes,Excellent,4
1267,MN,56355,Midwest,Yes,Good,4
829,WA,98528,West,Yes,Excellent,4
1232,NE,69150,Midwest,Yes,Excellent,4
467,NV,89166,West,Yes,Excellent,5
834,CA,94507,West,Yes,Good,4
1894,OH,44010,Midwest,Yes,Excellent,4
1648,OH,44303,Midwest,Yes,Excellent,4
2138,MS,38966,South,Yes,Excellent,5
1345,MI,49068,Midwest,Yes,Excellent,3
1461,CA,94954,West,Yes,Excellent,2
2336,AZ,85207,West,Yes,Excellent,2
1909,CA,92119,West,No,Excellent,3
459,CO,80820,West,Yes,Good,4
2548,NE,69152,Midwest,Yes,Excellent,2
1414,NC,28127,South,No,Excellent,4
1343,WI,54843,Midwest,Yes,Good,3
2362,TX,78361,South,No,Excellent,4
2009,KS,67022,Midwest,Yes,Excellent,4
1614,TX,75938,South,Yes,Excellent,5
1263,FL,33774,South,Yes,Excellent,4
1478,LA,70529,South,Yes,Excellent,4
575,WV,26134,South,Yes,Excellent,1
1239,OH,43566,Midwest,Yes,Poor,4
589,SC,29048,South,Yes,Excellent,4
519,MI,49008,Midwest,Yes,Excellent,2
580,FL,34711,South,Yes,Good,2
490,MO,63549,Midwest,Yes,Excellent,4
546,MO,64867,Midwest,Yes,Good,4
543,MI,48866,Midwest,Yes,Excellent,4
2229,NE,68461,Midwest,No,Excellent,4
2197,KY,42330,South,Yes,Excellent,4
610,FL,32833,South,No,Good,3
710,WI,54002,Midwest,Yes,Excellent,4
641,MN,56145,Midwest,Yes,Excellent,3
184,WA,98421,West,Yes,Good,3
2202,FL,32040,South,Yes,Excellent,4
1533,NC,27830,South,Yes,Good,4
168,OR,97845,West,Yes,Excellent,2
2125,WA,99032,West,Yes,Excellent,1
1457,MO,65625,Midwest,Yes,Poor,4
2156,MN,56686,Midwest,Yes,Good,4
561,ND,58464,Midwest,Yes,Good,3
491,IA,50842,Midwest,Yes,Good,3
537,WI,54914,Midwest,Yes,Excellent,4
1531,SD,57422,Midwest,Yes,Excellent,4
590,KS,66112,Midwest,Yes,Excellent,4
2327,GA,31097,South,Yes,Good,2
684,NC,27983,South,Yes,Good,4
1749,TX,78240,South,No,Excellent,1
2214,IN,46743,Midwest,Yes,Excellent,4
2334,AR,71644,South,Yes,Good,4
2122,LA,70363,South,Yes,Excellent,4
532,NE,69337,Midwest,Yes,Excellent,3
1129,CA,95066,West,Yes,Excellent,4
1724,CA,90003,West,No,Excellent,5
2056,MD,20690,South,Yes,Good,2
2198,TN,37340,South,Yes,Good,4
1816,TX,75754,South,Yes,Excellent,5
1288,DC,20260,South,Yes,Good,5
943,OH,45773,Midwest,Yes,Excellent,3
166,CA,95673,West,Yes,Good,4
1020,OR,97741,West,Yes,Poor,4
583,VA,24201,South,Yes,Poor,3
1047,TX,75251,South,Yes,Excellent,3
840,OK,74347,South,Yes,Poor,4
208,CA,94617,West,No,Excellent,4
192,CA,92257,West,Yes,Poor,4
963,TX,79230,South,Yes,Excellent,4
2540,OK,74528,South,No,Good,4
673,AL,36260,South,No,Poor,3
182,CA,94110,West,Yes,Excellent,4
1316,KS,67356,Midwest,Yes,Excellent,4
1405,MS,39741,South,Yes,Good,4
2464,TX,75074,South,No,Good,3
828,CA,92591,West,Yes,Excellent,2
604,IL,61015,Midwest,No,Good,5
924,ND,58730,Midwest,Yes,Excellent,4
242,ID,83861,West,Yes,Excellent,4
1634,WY,82834,West,Yes,Excellent,5
1776,MT,59720,West,Yes,Excellent,4
349,NY,11766,Northeast,Yes,Good,4
1610,OH,43913,Midwest,Yes,Excellent,4
190,CO,80601,West,Yes,Excellent,3
1075,WI,54983,Midwest,Yes,Excellent,3
1745,PA,17339,Northeast,Yes,Poor,3
1798,MS,39166,South,Yes,Excellent,4
1081,MI,49668,Midwest,Yes,Excellent,5
970,FL,33908,South,Yes,Excellent,4
2058,AZ,85033,West,Yes,Good,4
2372,MD,20680,South,Yes,Excellent,4
954,FL,33068,South,Yes,Excellent,4
2500,AR,72629,South,Yes,Excellent,3
2412,FL,33179,South,Yes,Excellent,4
1431,OR,97532,West,No,Good,4
2177,TX,78389,South,Yes,Excellent,4
1069,AL,35111,South,No,Poor,5
952,VA,22026,South,Yes,Good,4
536,CA,95060,West,Yes,Excellent,3
2398,WA,98942,West,Yes,Good,3
2113,TX,79086,South,Yes,Excellent,4
916,WI,53027,Midwest,Yes,Excellent,1
1198,OK,74574,South,Yes,Excellent,4
2578,TX,76108,South,Yes,Good,5
732,AL,36079,South,Yes,Poor,4
595,ND,58212,Midwest,Yes,Excellent,4
748,NC,27283,South,Yes,Excellent,4
1644,SD,57016,Midwest,Yes,Excellent,3
1779,CA,95030,West,Yes,Excellent,3
620,KS,67425,Midwest,Yes,Good,4
1157,CA,92126,West,Yes,Good,4
625,WV,26726,South,Yes,Excellent,3
576,IA,50858,Midwest,Yes,Good,4
864,CA,92075,West,No,Good,4
1495,MO,64496,Midwest,Yes,Excellent,4
204,OR,97451,West,Yes,Excellent,4
1356,KS,67127,Midwest,No,Good,4
668,SC,29829,South,Yes,Excellent,4
1438,MS,38858,South,Yes,Excellent,1
661,MN,56662,Midwest,No,Poor,2
867,OK,73441,South,Yes,Excellent,2
1499,OK,73529,South,Yes,Poor,4
2143,PA,15357,Northeast,No,Excellent,4
846,OR,97527,West,No,Good,5
2164,NJ,7009,Northeast,Yes,Poor,4
480,NM,88419,West,Yes,Poor,4
2491,MD,21631,South,Yes,Excellent,4
1176,MI,48220,Midwest,Yes,Good,4
540,NV,89433,West,Yes,Excellent,4
1174,MO,63471,Midwest,Yes,Good,4
865,CA,93033,West,Yes,Excellent,4
549,MO,63622,Midwest,No,Good,3
2162,UT,84313,West,No,Excellent,2
2025,NM,88301,West,Yes,Good,4
2502,MN,56293,Midwest,Yes,Good,4
1465,MA,2466,Northeast,Yes,Excellent,3
716,VT,5820,Northeast,Yes,Excellent,4
1908,NH,3845,Northeast,Yes,Good,4
2492,LA,71368,South,Yes,Excellent,4
1764,ME,4217,Northeast,Yes,Excellent,4
1872,RI,2875,Northeast,Yes,Excellent,4
2151,LA,70471,South,Yes,Good,4
1304,SC,29530,South,Yes,Excellent,5
1139,CT,6776,Northeast,Yes,Excellent,4
725,MA,2339,Northeast,Yes,Poor,5
525,ID,83274,West,Yes,Excellent,3
1416,AL,36005,South,Yes,Good,4
2343,CA,95922,West,Yes,Good,3
821,CA,90036,West,Yes,Good,4
1322,IL,62014,Midwest,Yes,Good,2
2588,AR,72079,South,Yes,Excellent,4
2622,OK,73051,South,Yes,Good,4
633,MI,49802,Midwest,Yes,Good,4
2612,TX,75944,South,Yes,Good,2
197,CO,80138,West,Yes,Excellent,4
581,CA,90723,West,Yes,Poor,2
2487,GA,30555,South,Yes,Good,1
982,WV,25901,South,Yes,Good,2
187,NV,89148,West,Yes,Good,1
2458,NE,69169,Midwest,Yes,Poor,4
1855,PA,17512,Northeast,No,Good,3
566,OR,97756,West,Yes,Excellent,4
1203,CA,95689,West,Yes,Excellent,1
1919,NC,28463,South,Yes,Good,2
1736,NM,87701,West,Yes,Excellent,4
1737,KS,66221,Midwest,Yes,Excellent,4
1864,MO,64863,Midwest,Yes,Excellent,2
1688,DC,20002,South,Yes,Good,1
2141,CA,90803,West,Yes,Excellent,2
2390,LA,71455,South,Yes,Excellent,4
1892,NJ,8340,Northeast,Yes,Good,4
927,MI,49509,Midwest,Yes,Excellent,3
1331,TX,78010,South,Yes,Excellent,4
609,CA,94903,West,Yes,Good,3
1413,TX,75574,South,Yes,Good,4
983,OH,43356,Midwest,Yes,Excellent,2
2231,FL,34762,South,No,Good,4
578,MO,63363,Midwest,Yes,Excellent,4
585,WI,54246,Midwest,Yes,Good,4
2293,TN,38233,South,Yes,Excellent,3
1117,OR,97396,West,Yes,Excellent,4
627,VA,24529,South,Yes,Excellent,4
2270,IN,47611,Midwest,Yes,Excellent,4
1007,TX,77096,South,Yes,Good,4
624,FL,33868,South,Yes,Excellent,1
2551,OK,73853,South,Yes,Excellent,4
1310,OH,45322,Midwest,Yes,Good,3
1076,TX,79227,South,Yes,Good,4
655,NY,10969,Northeast,No,Good,5
2553,NE,68133,Midwest,Yes,Excellent,4
1295,MN,55707,Midwest,Yes,Excellent,4
2067,PA,18222,Northeast,Yes,Good,4
2208,NC,28078,South,Yes,Excellent,5
2093,MT,59242,West,Yes,Excellent,4
504,CO,81403,West,Yes,Excellent,4
2269,SD,57725,Midwest,Yes,Excellent,4
1294,VA,22722,South,Yes,Good,4
2510,WA,98351,West,Yes,Excellent,4
2000,DC,20019,South,Yes,Excellent,4
1677,OH,43811,Midwest,Yes,Excellent,4
1497,CA,94536,West,Yes,Good,4
2532,KY,41351,South,Yes,Excellent,4
2245,KY,41092,South,Yes,Excellent,2
2583,GA,30093,South,Yes,Excellent,4
1311,WV,25854,South,Yes,Good,4
2541,IN,47302,Midwest,Yes,Poor,4
1376,WI,54420,Midwest,Yes,Good,4
1768,OR,97731,West,Yes,Excellent,2
2300,AZ,85139,West,Yes,Excellent,4
746,WI,54759,Midwest,Yes,Excellent,2
899,CA,95250,West,Yes,Good,5
1730,TX,78108,South,Yes,Excellent,4
688,IL,61701,Midwest,Yes,Poor,2
2381,TX,78606,South,Yes,Good,5
2351,GA,30139,South,Yes,Good,1
1805,TX,76365,South,Yes,Excellent,4
591,NE,68871,Midwest,No,Excellent,4
574,WA,99204,West,Yes,Excellent,2
623,ND,58370,Midwest,Yes,Excellent,4
1900,UT,84642,West,Yes,Excellent,3
649,WV,25965,South,Yes,Excellent,4
2361,AR,72168,South,Yes,Good,4
231,WA,98136,West,Yes,Good,4
959,ND,58737,Midwest,Yes,Good,4
1641,OH,43302,Midwest,No,Good,3
223,CO,80210,West,Yes,Excellent,5
224,CA,93621,West,Yes,Excellent,2
579,MO,65254,Midwest,Yes,Poor,4
2511,AR,72753,South,Yes,Excellent,4
2461,TN,37029,South,Yes,Excellent,2
2015,SD,57321,Midwest,Yes,Good,4
1182,CA,91436,West,No,Excellent,4
1389,KS,66521,Midwest,Yes,Good,4
1154,AL,36617,South,Yes,Excellent,4
2096,MD,21220,South,Yes,Excellent,4
1053,SC,29114,South,Yes,Excellent,4
933,MO,65468,Midwest,Yes,Good,2
2433,KY,40385,South,Yes,Excellent,4
207,NV,89031,West,No,Poor,4
2610,OK,74827,South,Yes,Excellent,3
979,KS,67144,Midwest,Yes,Excellent,5
252,CA,91767,West,Yes,Excellent,1
1060,IL,60178,Midwest,Yes,Excellent,4
1004,FL,33569,South,Yes,Excellent,3
1469,OR,97827,West,Yes,Good,4
587,CA,92197,West,Yes,Good,4
981,FL,32805,South,Yes,Excellent,4
2089,AZ,86445,West,Yes,Excellent,5
1596,CA,95979,West,Yes,Excellent,2
236,CA,93560,West,Yes,Excellent,4
2481,TX,76023,South,Yes,Excellent,4
692,MN,55405,Midwest,Yes,Good,3
900,OK,74120,South,Yes,Excellent,4
588,MI,48225,Midwest,Yes,Good,1
2204,TX,75946,South,Yes,Excellent,4
2499,MD,20624,South,Yes,Good,4
564,ID,83654,West,Yes,Excellent,4
508,CO,80456,West,Yes,Excellent,4
1395,MI,48118,Midwest,Yes,Excellent,4
1283,WI,54618,Midwest,Yes,Excellent,4
2183,MO,64726,Midwest,No,Good,4
1977,WY,82710,West,Yes,Excellent,4
568,NV,89403,West,Yes,Good,4
875,WA,98208,West,Yes,Excellent,4
1275,NE,68663,Midwest,Yes,Excellent,4
1906,RI,2886,Northeast,Yes,Good,4
2174,LA,70730,South,Yes,Excellent,4
743,VT,5360,Northeast,Yes,Excellent,4
1229,IA,51446,Midwest,Yes,Excellent,4
881,CA,95364,West,Yes,Excellent,4
2049,NM,87101,West,Yes,Good,4
2516,MN,55356,Midwest,Yes,Excellent,4
2050,KS,66016,Midwest,Yes,Good,5
2530,FL,33612,South,Yes,Good,4
517,NV,89145,West,Yes,Good,4
2190,UT,84526,West,Yes,Excellent,4
1319,KS,66771,Midwest,Yes,Excellent,4
1657,TX,76001,South,Yes,Excellent,4
2356,TX,78473,South,Yes,Excellent,4
2556,TN,38460,South,Yes,Excellent,4
1309,FL,32420,South,Yes,Poor,3
1869,TX,78069,South,Yes,Excellent,5
1708,OH,44647,Midwest,Yes,Excellent,4
2193,MS,39571,South,Yes,Excellent,1
1257,ND,58352,Midwest,Yes,Excellent,4
682,NY,13035,Northeast,No,Excellent,4
1542,LA,70814,South,Yes,Good,5
1953,NH,3771,Northeast,Yes,Good,4
1404,WI,54830,Midwest,Yes,Excellent,3
607,MO,64633,Midwest,Yes,Excellent,4
2192,LA,71292,South,Yes,Good,3
1682,SD,57706,Midwest,Yes,Good,3
2521,WA,98577,West,Yes,Excellent,1
2203,NJ,8020,Northeast,Yes,Excellent,1
766,MA,1468,Northeast,Yes,Excellent,1
1347,DC,20015,South,Yes,Excellent,5
619,IA,52048,Midwest,Yes,Excellent,4
2275,NE,68524,Midwest,Yes,Excellent,3
2178,WA,98039,West,Yes,Excellent,4
2228,NC,28531,South,Yes,Excellent,2
2217,MN,56585,Midwest,Yes,Good,4
791,NC,28138,South,Yes,Excellent,4
1481,NC,27101,South,No,Good,4
1955,OH,43025,Midwest,Yes,Good,3
667,MI,49254,Midwest,Yes,Excellent,3
2505,LA,70057,South,No,Excellent,4
676,FL,32336,South,Yes,Excellent,2
2031,DC,20376,South,Yes,Excellent,4
1361,PA,15057,Northeast,Yes,Excellent,4
1271,MO,63368,Midwest,Yes,Good,4
858,CA,92637,West,Yes,Poor,4
1337,WV,26238,South,Yes,Good,4
929,CA,92111,West,Yes,Excellent,4
770,AL,36106,South,Yes,Excellent,4
1299,OH,43003,Midwest,Yes,Excellent,4
1490,MS,39565,South,Yes,Excellent,4
2268,KY,40209,South,Yes,Excellent,2
1460,AL,36320,South,No,Good,4
53,NY,10983,Northeast,Yes,Good,4
1529,CA,94956,West,Yes,Poor,3
1579,NJ,7662,Northeast,No,Excellent,4
1313,FL,32963,South,Yes,Good,5
2289,IN,46163,Midwest,Yes,Excellent,3
909,CA,95456,West,Yes,Excellent,1
2310,TN,37218,South,Yes,Poor,4
49,NY,10004,Northeast,Yes,Poor,5
14,NY,14569,Northeast,No,Good,1
2595,AR,72142,South,Yes,Excellent,1
1538,PA,17841,Northeast,Yes,Excellent,4
914,CA,93704,West,Yes,Excellent,4
1969,CA,91762,West,Yes,Poor,2
2550,IN,46714,Midwest,Yes,Excellent,4
1597,NC,28676,South,Yes,Excellent,4
768,WI,54891,Midwest,Yes,Good,4
1821,CA,96010,West,Yes,Good,2
1898,LA,70808,South,Yes,Excellent,4
1333,OH,45069,Midwest,Yes,Excellent,3
964,IA,50701,Midwest,Yes,Excellent,4
939,MO,65724,Midwest,Yes,Excellent,4
1043,MN,56710,Midwest,Yes,Excellent,4
290,ID,83254,West,Yes,Poor,1
1128,NC,27330,South,No,Excellent,4
1238,OK,74901,South,Yes,Excellent,4
1769,KS,66417,Midwest,Yes,Excellent,4
1357,TX,78943,South,No,Excellent,4
1676,WY,82411,West,No,Excellent,5
1441,TX,78881,South,Yes,Excellent,3
953,NE,68368,Midwest,Yes,Excellent,2
206,NM,87711,West,Yes,Excellent,2
630,CA,94609,West,Yes,Excellent,4
2394,MD,20772,South,Yes,Good,4
1125,MI,48236,Midwest,Yes,Excellent,4
2401,LA,71001,South,Yes,Good,4
251,CA,90732,West,Yes,Excellent,4
628,WI,54621,Midwest,Yes,Excellent,3
269,CA,93603,West,Yes,Excellent,2
2132,MD,20620,South,Yes,Excellent,4
734,SC,29596,South,Yes,Good,4
2378,AR,72584,South,Yes,Excellent,2
2267,FL,34241,South,Yes,Good,4
1166,OR,97737,West,Yes,Excellent,4
260,CA,91708,West,Yes,Excellent,4
1564,MO,64096,Midwest,No,Excellent,4
648,ND,58580,Midwest,Yes,Good,4
612,MO,63043,Midwest,Yes,Good,5
270,OR,97901,West,Yes,Excellent,4
2367,GA,30428,South,Yes,Good,4
1219,CA,95536,West,Yes,Poor,5
1026,OH,45245,Midwest,Yes,Excellent,5
545,CO,81653,West,Yes,Poor,4
1187,CT,6359,Northeast,Yes,Good,1
2370,AZ,85096,West,Yes,Good,4
2589,GA,30683,South,Yes,Excellent,4
2145,MT,59033,West,Yes,Poor,4
593,ID,83355,West,Yes,Excellent,4
1527,MA,1826,Northeast,Yes,Excellent,4
1379,IL,60959,Midwest,Yes,Excellent,3
1284,MI,49891,Midwest,No,Good,4
599,NV,89161,West,Yes,Excellent,4
2544,KY,42749,South,Yes,Poor,4
2104,PA,15846,Northeast,Yes,Excellent,3
2294,SD,57633,Midwest,Yes,Excellent,4
1052,TX,75801,South,Yes,Good,4
1933,RI,2859,Northeast,Yes,Excellent,4
2074,NM,87004,West,No,Good,5
1691,TX,78954,South,Yes,Good,4
2566,NE,68404,Midwest,Yes,Excellent,4
1340,MN,56088,Midwest,Yes,Excellent,3
1822,ME,4626,Northeast,Yes,Good,4
548,NV,89033,West,Yes,Excellent,4
738,IL,61459,Midwest,Yes,Excellent,4
2326,AZ,85230,West,Yes,Good,4
2624,OK,74542,South,Yes,Good,5
2195,LA,71234,South,Yes,Poor,4
2535,FL,33801,South,Yes,Good,4
910,OR,97801,West,Yes,Excellent,4
1778,TX,77040,South,Yes,Good,4
2473,NE,69040,Midwest,Yes,Excellent,3
1142,WI,54130,Midwest,Yes,Excellent,4
597,CA,94129,West,Yes,Good,4
1929,UT,84086,West,Yes,Good,5
1786,NM,87018,West,Yes,Good,4
603,WA,98675,West,Yes,Excellent,4
2227,TX,78231,South,Yes,Good,2
1625,CA,95348,West,Yes,Good,2
2421,MN,55313,Midwest,Yes,Excellent,3
239,CO,80294,West,Yes,Excellent,4
965,MI,49765,Midwest,No,Excellent,5
961,MO,64126,Midwest,Yes,Good,4
2522,AR,72435,South,No,Excellent,4
2470,TN,37370,South,Yes,Excellent,3
1962,NC,27916,South,Yes,Poor,4
1006,KS,67058,Midwest,Yes,Good,4
1829,MT,59840,West,Yes,Excellent,4
986,ND,58271,Midwest,Yes,Excellent,4
2171,TX,78076,South,Yes,Excellent,4
1010,VA,22716,South,Yes,Excellent,4
1503,OR,97204,West,Yes,Excellent,3
2424,WA,98859,West,Yes,Good,4
1022,WV,26767,South,Yes,Excellent,3
1854,MS,39482,South,No,Excellent,3
2086,AZ,85308,West,Yes,Excellent,1
2614,TX,75661,South,Yes,Excellent,3
975,WI,54205,Midwest,Yes,Excellent,1
2590,TX,78113,South,Yes,Excellent,4
1937,NJ,8055,Northeast,Yes,Excellent,4
2456,IN,47341,Midwest,Yes,Excellent,4
1083,IL,60633,Midwest,Yes,Excellent,5
1243,CA,90266,West,Yes,Excellent,4
740,MN,55933,Midwest,Yes,Excellent,4
273,WA,99320,West,No,Excellent,5
1137,TX,76014,South,Yes,Poor,3
2291,KY,42076,South,Yes,Excellent,5
1570,PA,16323,Northeast,Yes,Good,4
1847,CA,94571,West,Yes,Excellent,3
2242,MN,56029,Midwest,Yes,Good,5
1432,KS,67206,Midwest,Yes,Good,5
297,CA,93675,West,Yes,Good,5
683,KS,67626,Midwest,Yes,Good,4
2219,LA,70508,South,Yes,Good,1
2308,IN,46034,Midwest,No,Excellent,4
629,MI,49345,Midwest,Yes,Excellent,2
948,OK,74021,South,Yes,Excellent,4
2377,TX,78150,South,Yes,Excellent,4
1442,MI,49085,Midwest,Yes,Poor,4
1434,WI,54728,Midwest,Yes,Excellent,4
722,NY,11577,Northeast,Yes,Excellent,4
1587,OK,74954,South,Yes,Excellent,4
2029,WY,82224,West,Yes,Excellent,4
1251,MO,65617,Midwest,Yes,Excellent,2
1326,WI,54141,Midwest,Yes,Excellent,4
2221,MO,65542,Midwest,Yes,Excellent,4
2533,MN,56438,Midwest,Yes,Excellent,4
552,NM,88044,West,Yes,Excellent,4
2518,MD,21260,South,Yes,Excellent,4
792,VT,5250,Northeast,Yes,Excellent,2
1268,IA,50057,Midwest,Yes,Excellent,4
1360,KS,66026,Midwest,Yes,Excellent,4
1515,NC,27876,South,Yes,Good,4
1348,FL,32968,South,Yes,Excellent,5
2602,AR,72416,South,Yes,Good,2
1982,OH,45335,Midwest,Yes,Good,5
2224,MS,39641,South,Yes,Excellent,4
2205,PA,16116,Northeast,Yes,Good,4
2253,NC,28152,South,Yes,Excellent,4
2384,CA,95242,West,Yes,Excellent,5
957,CA,90262,West,No,Good,4
920,WA,98686,West,Yes,Excellent,4
1921,TX,75931,South,Yes,Excellent,4
1381,SC,29625,South,Yes,Good,4
2519,LA,70744,South,Yes,Excellent,3
2408,TX,76578,South,Yes,Excellent,2
1365,OH,43029,Midwest,Yes,Excellent,4
1266,OK,73054,South,Yes,Excellent,4
2136,AZ,85237,West,Yes,Poor,4
255,NV,89423,West,Yes,Excellent,3
1754,DC,20007,South,Yes,Poor,4
240,NM,87943,West,Yes,Good,3
2506,GA,31017,South,Yes,Excellent,3
1393,TX,78879,South,Yes,Good,5
1930,LA,70812,South,Yes,Good,4
1199,AL,35958,South,Yes,Excellent,4
1712,WY,82937,West,Yes,Good,4
268,CO,81151,West,Yes,Good,4
993,IA,52346,Midwest,Yes,Good,4
248,NV,89156,West,Yes,Excellent,4
2414,LA,70448,South,Yes,Excellent,4
2448,FL,33914,South,Yes,Excellent,4
1824,PA,17519,Northeast,Yes,Poor,1
426,NY,10119,Northeast,Yes,Excellent,1
1158,NC,27544,South,Yes,Good,4
1686,OH,44401,Midwest,Yes,Good,4
626,OR,97490,West,Yes,Excellent,4
1099,SC,29516,South,Yes,Excellent,4
1480,TX,78012,South,Yes,Excellent,4
1023,FL,32801,South,Yes,Excellent,2
632,CA,91754,West,Yes,Good,2
2452,KY,42464,South,Yes,Excellent,2
817,WI,54412,Midwest,Yes,Good,4
699,VA,22520,South,Yes,Excellent,4
1396,DC,20017,South,Yes,Excellent,4
70,NY,14748,Northeast,Yes,Excellent,3
646,MO,65025,Midwest,Yes,Excellent,5
1729,SD,57448,Midwest,Yes,Good,4
2215,WA,98903,West,Yes,Good,4
1342,OH,45233,Midwest,Yes,Good,3
644,NE,68651,Midwest,Yes,Excellent,2
1623,NJ,8533,Northeast,Yes,Excellent,4
2570,OK,74632,South,Yes,Excellent,2
299,CA,94576,West,Yes,Poor,4
820,AL,36744,South,Yes,Excellent,4
703,WV,26743,South,Yes,Excellent,4
1591,LA,70395,South,No,Good,4
687,FL,34614,South,Yes,Excellent,5
776,MI,48879,Midwest,Yes,Good,3
2337,TN,38379,South,Yes,Excellent,5
1054,OH,45622,Midwest,Yes,Excellent,4
955,CA,95935,West,Yes,Poor,4
563,CO,80922,West,Yes,Excellent,4
1317,MO,64847,Midwest,No,Excellent,1
1578,CA,92036,West,No,Poor,2
2574,TN,38588,South,No,Good,1
582,NV,89129,West,Yes,Excellent,4
2101,NM,87516,West,Yes,Good,4
819,MA,2050,Northeast,Yes,Excellent,4
1375,MN,55324,Midwest,Yes,Good,2
2146,PA,15545,Northeast,Yes,Excellent,4
1842,OR,97627,West,Yes,Poor,3
1848,ME,4022,Northeast,Yes,Good,3
1369,VA,22033,South,Yes,Excellent,3
2020,CA,96034,West,Yes,Excellent,5
724,NY,11236,Northeast,Yes,Excellent,2
1759,OH,43502,Midwest,Yes,Excellent,4
2576,NE,68943,Midwest,Yes,Good,2
1296,ND,58735,Midwest,Yes,Excellent,4
1330,NE,68349,Midwest,Yes,Good,1
938,CA,92585,West,Yes,Excellent,4
2066,DC,20010,South,Yes,Good,4
2223,LA,71034,South,Yes,Good,4
1380,WV,24954,South,Yes,Good,2
2536,WA,99354,West,Yes,Poor,3
2625,OK,74445,South,Yes,Good,4
1351,FL,32113,South,Yes,Good,5
2415,MD,21117,South,Yes,Excellent,4
1114,IL,61920,Midwest,Yes,Good,4
669,CA,91387,West,Yes,Good,4
1082,MN,56544,Midwest,Yes,Excellent,4
1932,PA,16436,Northeast,Yes,Excellent,4
1996,NC,28311,South,Yes,Excellent,4
2207,CA,95328,West,Yes,Good,3
1513,AL,35652,South,Yes,Excellent,3
995,MI,48454,Midwest,Yes,Good,1
980,MO,64192,Midwest,Yes,Good,3
1061,WI,53549,Midwest,Yes,Excellent,2
647,CA,93505,West,Yes,Poor,4
2069,SD,57649,Midwest,Yes,Good,1
1092,VA,23120,South,No,Good,5
2249,TX,79029,South,Yes,Good,4
1942,MO,63055,Midwest,Yes,Excellent,4
2435,MN,56726,Midwest,No,Good,4
2613,OK,74755,South,Yes,Excellent,3
1017,ND,58533,Midwest,Yes,Excellent,3
1887,MS,39110,South,Yes,Good,3
1810,NM,87556,West,Yes,Excellent,4
2115,AZ,85938,West,Yes,Excellent,4
2534,AR,72660,South,Yes,Excellent,1
1056,FL,33388,South,Yes,Excellent,4
998,NE,68732,Midwest,Yes,Excellent,4
2617,TX,78550,South,Yes,Good,3
672,IA,52309,Midwest,Yes,Excellent,5
327,CA,92262,West,Yes,Excellent,4
1606,MO,65084,Midwest,Yes,Excellent,4
1874,TX,79925,South,No,Excellent,3
2306,KY,41219,South,Yes,Excellent,4
1204,OR,97055,West,Yes,Good,4
303,CA,94044,West,Yes,Excellent,4
320,OR,97405,West,Yes,Excellent,4
1462,KS,66060,Midwest,Yes,Excellent,4
2396,AR,72858,South,Yes,Excellent,4
2240,LA,71367,South,Yes,Excellent,3
1088,TX,77302,South,Yes,Excellent,1
685,ND,58576,Midwest,Yes,Excellent,3
23,AK,99567,West,Yes,Excellent,4
1553,MS,38671,South,Yes,Poor,4
71,AK,99503,West,Yes,Excellent,4
178,AK,99572,West,Yes,Good,5
218,AK,99901,West,No,Excellent,4
2498,TX,77088,South,Yes,Good,4
262,AK,99568,West,Yes,Excellent,4
311,AK,99518,West,Yes,Good,4
2474,IN,47036,Midwest,Yes,Excellent,4
1980,NJ,8035,Northeast,Yes,Poor,4
345,ID,83214,West,Yes,Excellent,4
1292,OK,74452,South,Yes,Good,4
285,NV,89067,West,Yes,Good,3
1784,DC,20009,South,Yes,Excellent,4
1226,AL,36089,South,Yes,Excellent,5
1058,MO,63964,Midwest,Yes,Excellent,3
275,NV,89139,West,Yes,Good,3
2454,FL,33605,South,Yes,Excellent,4
2441,WA,98938,West,Yes,Good,5
1019,IA,51533,Midwest,Yes,Excellent,1
2483,TN,37725,South,Yes,Good,4
340,AK,99639,West,Yes,Poor,4
1122,SC,29546,South,Yes,Excellent,4
2596,TX,79083,South,Yes,Excellent,4
1423,TX,76449,South,Yes,Excellent,4
2527,MD,21817,South,Yes,Good,4
2179,MT,59047,West,Yes,Excellent,4
1477,MI,48755,Midwest,Yes,Poor,3
2014,NH,3262,Northeast,Yes,Good,4
917,CA,91761,West,Yes,Excellent,3
2244,UT,84338,West,Yes,Good,4
2349,AZ,85031,West,Yes,Poor,4
636,ID,83803,West,No,Good,4
1577,MA,1746,Northeast,Yes,Good,4
1327,MI,49116,Midwest,Yes,Poor,4
2528,LA,70777,South,Yes,Excellent,3
364,CA,95358,West,Yes,Good,1
2392,AZ,85140,West,Yes,Excellent,3
2277,MN,55112,Midwest,Yes,Poor,2
2395,GA,31641,South,Yes,Excellent,4
2191,MD,21104,South,Yes,Excellent,4
802,SC,29671,South,No,Excellent,2
2322,NE,68741,Midwest,Yes,Excellent,4
324,WA,98612,West,Yes,Good,4
731,VA,23937,South,Yes,Excellent,4
2241,WA,98538,West,Yes,Excellent,4
1654,NJ,8037,Northeast,Yes,Good,3
1626,LA,70117,South,Yes,Good,4
871,NC,28246,South,No,Excellent,5
680,MO,64448,Midwest,Yes,Excellent,4
1272,CA,90502,West,Yes,Excellent,2
728,KS,66755,Midwest,Yes,Good,3
806,IL,61073,Midwest,Yes,Excellent,4
2579,OK,74027,South,Yes,Good,2
996,OK,74833,South,No,Good,1
1673,NC,27577,South,Yes,Good,1
786,MN,56455,Midwest,Yes,Good,4
1896,CA,91901,West,Yes,Excellent,3
2017,OH,45846,Midwest,Yes,Excellent,4
755,FL,32063,South,Yes,Excellent,4
2509,TX,77585,South,Yes,Excellent,4
2564,IN,46561,Midwest,No,Good,2
866,MI,48832,Midwest,Yes,Good,4
2124,KS,66938,Midwest,Yes,Excellent,3
405,AK,99705,West,Yes,Poor,4
1734,TX,75773,South,Yes,Excellent,4
972,CA,90232,West,No,Good,4
439,AK,99701,West,Yes,Excellent,4
486,AK,99676,West,No,Excellent,2
550,AK,99743,West,Yes,Good,2
598,AK,99669,West,No,Good,3
652,AK,99501,West,Yes,Good,4
1116,TX,77534,South,Yes,Excellent,2
681,MO,64667,Midwest,Yes,Excellent,4
154,NY,14817,Northeast,Yes,Excellent,5
702,IA,52567,Midwest,Yes,Excellent,5
697,WI,53202,Midwest,Yes,Excellent,4
2318,FL,34433,South,Yes,Good,4
1781,SD,57237,Midwest,Yes,Excellent,4
1502,KS,67232,Midwest,Yes,Good,4
859,AL,35586,South,No,Poor,4
2263,LA,70633,South,No,Excellent,4
1388,OH,45680,Midwest,Yes,Good,2
741,FL,33767,South,Yes,Excellent,4
1979,TX,75163,South,Yes,Good,4
708,AK,99712,West,Yes,Excellent,4
348,CA,93930,West,Yes,Poor,4
1000,CA,94999,West,Yes,Excellent,4
764,WV,26437,South,Yes,Excellent,1
1585,MS,38849,South,Yes,Poor,5
1443,DC,20037,South,Yes,Excellent,4
284,NM,87043,West,Yes,Excellent,4
2427,MD,20763,South,Yes,Good,3
1133,WV,25045,South,Yes,Excellent,4
1758,WY,82325,West,Yes,Good,1
1411,OH,44308,Midwest,Yes,Excellent,4
1522,TX,78063,South,Yes,Excellent,2
304,CO,81504,West,Yes,Good,4
1063,FL,33149,South,Yes,Good,4
2172,AZ,85226,West,Yes,Excellent,5
1568,OR,97004,West,Yes,Excellent,4
1684,CA,93529,West,Yes,Excellent,3
2523,GA,31827,South,Yes,Good,3
1974,LA,70453,South,Yes,Excellent,4
1897,MT,59012,West,Yes,Good,3
2489,NE,68350,Midwest,Yes,Excellent,1
671,CA,91042,West,Yes,Good,4
650,CA,95458,West,Yes,Good,4
2274,TX,75024,South,Yes,Excellent,5
662,CA,92373,West,No,Good,4
1818,TX,78737,South,Yes,Excellent,4
2542,AR,72140,South,Yes,Excellent,4
1193,WI,53035,Midwest,Yes,Excellent,4
1839,KS,67502,Midwest,Yes,Excellent,4
2222,TX,75442,South,Yes,Good,4
2468,KY,41558,South,Yes,Excellent,4
663,OR,97480,West,No,Good,4
1293,CA,92103,West,Yes,Poor,5
1148,IL,61021,Midwest,Yes,Good,4
1191,MI,49968,Midwest,Yes,Excellent,4
2431,LA,71369,South,Yes,Poor,2
592,CO,80439,West,No,Poor,5
653,NV,89049,West,Yes,Excellent,2
1487,WI,53507,Midwest,Yes,Good,3
2400,CA,95552,West,Yes,Excellent,4
2599,GA,30075,South,Yes,Excellent,4
830,VT,5261,Northeast,Yes,Excellent,4
2063,WY,82426,West,Yes,Excellent,4
1244,CT,6152,Northeast,Yes,Good,4
2581,NE,68413,Midwest,No,Good,4
1636,OK,73013,South,No,Excellent,5
2139,NM,88121,West,Yes,Excellent,4
1403,KS,67861,Midwest,Yes,Good,3
1314,IA,52141,Midwest,Yes,Excellent,3
2618,TX,78013,South,Yes,Good,4
2254,MS,38844,South,Yes,Excellent,3
1394,FL,32826,South,Yes,Excellent,4
2329,SD,57072,Midwest,Yes,Good,3
2258,NJ,8201,Northeast,No,Excellent,2
1189,TX,76302,South,Yes,Excellent,4
2604,AR,71740,South,Yes,Excellent,5
1915,MS,38920,South,Yes,Excellent,5
1567,NC,27265,South,Yes,Good,4
1790,OH,45317,Midwest,Yes,Excellent,3
2549,WA,98685,West,Yes,Excellent,5
2626,OK,73939,South,Yes,Excellent,4
2252,MO,65258,Midwest,No,Good,4
1437,IL,60112,Midwest,Yes,Excellent,2
2283,NC,27530,South,Yes,Good,4
2545,MN,55738,Midwest,Yes,Good,4
851,MA,2446,Northeast,Yes,Good,1
2559,KY,40322,South,Yes,Good,4
705,MO,65713,Midwest,Yes,Excellent,3
371,CA,93036,West,No,Excellent,4
701,NE,68111,Midwest,Yes,Good,4
362,OR,97301,West,Yes,Excellent,4
761,KS,66431,Midwest,Yes,Excellent,2
903,NC,28762,South,Yes,Excellent,2
826,SC,29037,South,Yes,Excellent,4
1103,OH,43963,Midwest,Yes,Good,4
391,CA,94590,West,Yes,Excellent,5
815,MN,56178,Midwest,No,Good,2
1297,CA,95831,West,Yes,Excellent,3
2348,IN,47638,Midwest,Yes,Good,4
2416,AR,71971,South,Yes,Excellent,3
879,WI,54670,Midwest,Yes,Excellent,2
2261,WA,98204,West,Yes,Excellent,4
1248,OR,97127,West,Yes,Good,4
1652,LA,71403,South,Yes,Good,4
698,MI,48657,Midwest,No,Excellent,4
2520,TX,78722,South,Yes,Excellent,3
2365,TN,38047,South,Yes,Excellent,2
1059,ND,58622,Midwest,No,Excellent,4
2117,SD,57032,Midwest,Yes,Good,1
2044,NC,28582,South,Yes,Poor,4
2453,WA,98326,West,Yes,Excellent,2
372,ID,83810,West,Yes,Excellent,1
1747,OH,44133,Midwest,Yes,Excellent,1
315,CO,80929,West,No,Good,4
1050,IA,52037,Midwest,No,Excellent,3
312,NV,89183,West,Yes,Good,3
1078,KS,67065,Midwest,Yes,Excellent,4
1034,MI,49770,Midwest,Yes,Excellent,2
2482,IN,47720,Midwest,Yes,Excellent,3
1135,VA,23608,South,Yes,Excellent,4
2010,UT,84315,West,Yes,Good,5
1270,NC,28036,South,Yes,Good,2
1983,MO,64055,Midwest,Yes,Excellent,4
666,WA,99158,West,Yes,Excellent,4
1452,TX,77565,South,Yes,Good,5
789,NY,13338,Northeast,Yes,Good,4
1378,NE,68116,Midwest,Yes,Poor,4
1899,ME,4746,Northeast,No,Excellent,4
1040,OR,97493,West,Yes,Excellent,2
2119,CA,93531,West,Yes,Poor,2
2364,AZ,85085,West,Yes,Excellent,3
1611,MA,2636,Northeast,Yes,Excellent,4
622,CO,80751,West,Yes,Excellent,4
1385,WI,53048,Midwest,Yes,Good,2
2410,AZ,85347,West,Yes,Excellent,4
2255,PA,17771,Northeast,Yes,Good,4
2012,RI,2830,Northeast,No,Excellent,4
1421,VA,23872,South,Yes,Excellent,4
949,CA,95635,West,Yes,Good,2
614,NM,88436,West,Yes,Excellent,4
2575,IN,47124,Midwest,Yes,Excellent,4
1398,FL,32601,South,Yes,Excellent,4
1341,ND,58251,Midwest,Yes,Good,4
2586,TN,37872,South,Yes,Good,1
2405,TX,79836,South,Yes,Excellent,3
1630,CA,95064,West,Yes,Excellent,5
2182,PA,18015,Northeast,Yes,Excellent,2
1885,OR,97536,West,Yes,Poor,4
2110,DC,20005,South,Yes,Excellent,3
767,NY,12993,Northeast,Yes,Excellent,3
1008,CA,95652,West,Yes,Excellent,4
2230,MD,21231,South,Yes,Good,4
749,ND,58346,Midwest,No,Excellent,5
1419,OH,44730,Midwest,Yes,Excellent,4
2341,NE,68301,Midwest,Yes,Good,4
1479,DC,20391,South,Yes,Poor,4
1486,PA,17554,Northeast,Yes,Good,4
1592,MT,59872,West,Yes,Excellent,4
44,ID,83627,West,Yes,Good,4
855,IL,60302,Midwest,Yes,Excellent,5
38,NV,89825,West,No,Excellent,3
1802,SD,57790,Midwest,Yes,Poor,3
1938,CA,92021,West,Yes,Excellent,1
2587,OK,74878,South,Yes,Excellent,5
1450,WY,82215,West,Yes,Excellent,4
17,CO,80920,West,Yes,Good,4
365,WA,99111,West,Yes,Excellent,2
1512,MI,49450,Midwest,Yes,Excellent,4
39,NM,87532,West,Yes,Excellent,5
1565,AL,36035,South,Yes,Good,4
26,NV,89008,West,Yes,Good,5
1941,TX,77449,South,Yes,Excellent,1
2562,FL,34217,South,Yes,Good,4
1873,AZ,85213,West,Yes,Good,4
1662,MO,64479,Midwest,No,Excellent,1
1695,UT,84050,West,Yes,Excellent,4
1537,NM,88045,West,No,Good,4
1851,AZ,85172,West,Yes,Poor,1
787,WV,26037,South,Yes,Excellent,4
28,CO,80132,West,Yes,Good,4
809,FL,32068,South,Yes,Good,4
2432,TX,79111,South,Yes,Excellent,4
489,NY,13063,Northeast,Yes,Excellent,3
1167,SC,29485,South,Yes,Excellent,2
2199,AZ,85205,West,Yes,Good,2
330,NV,89144,West,Yes,Good,4
2248,CA,93664,West,Yes,Good,4
325,NM,88338,West,Yes,Excellent,5
1118,WI,54701,Midwest,Yes,Good,3
1903,PA,15045,Northeast,Yes,Excellent,2
1986,PA,19465,Northeast,Yes,Excellent,3
1160,WV,24901,South,Yes,Excellent,2
730,CA,90717,West,No,Poor,4
1120,FL,32953,South,Yes,Good,4
675,CA,94515,West,Yes,Good,3
2457,MN,55798,Midwest,Yes,Excellent,3
1946,MS,39355,South,Yes,Excellent,3
1036,MO,63048,Midwest,Yes,Good,3
2496,TN,38367,South,Yes,Poor,4
1866,NM,87535,West,Yes,Excellent,2
1269,AL,36305,South,Yes,Poor,3
1101,MO,64722,Midwest,Yes,Excellent,4
2472,FL,32081,South,Yes,Excellent,2
2615,OK,73561,South,Yes,Good,1
1223,MI,48827,Midwest,Yes,Excellent,4
1635,MS,38744,South,Yes,Excellent,4
729,MO,63133,Midwest,Yes,Excellent,4
747,MO,64445,Midwest,Yes,Good,4
928,MI,48532,Midwest,No,Good,2
848,MN,56339,Midwest,Yes,Good,4
2296,LA,71045,South,Yes,Excellent,2
2339,FL,32312,South,Yes,Excellent,4
797,VA,24550,South,Yes,Excellent,5
1328,CA,92673,West,Yes,Excellent,2
1716,NJ,7036,Northeast,No,Excellent,5
188,NY,11004,Northeast,Yes,Poor,3
427,CA,92154,West,Yes,Excellent,4
915,WI,54657,Midwest,Yes,Good,5
758,IA,51545,Midwest,Yes,Good,3
1039,CA,93551,West,Yes,Good,5
1733,NC,28174,South,Yes,Poor,4
2285,WA,99161,West,Yes,Excellent,4
2423,GA,30143,South,Yes,Excellent,4
2382,TN,38375,South,Yes,Excellent,4
2216,MT,59274,West,Yes,Excellent,5
1372,MI,49092,Midwest,Yes,Excellent,4
1021,CA,95460,West,Yes,Excellent,4
1318,MO,63541,Midwest,Yes,Excellent,2
375,CA,92507,West,Yes,Good,4
1550,KS,66031,Midwest,Yes,Good,2
1161,TX,75834,South,Yes,Good,4
2303,NC,27205,South,Yes,Good,4
863,VT,5845,Northeast,Yes,Good,4
1339,IA,50603,Midwest,Yes,Good,3
1373,MO,63116,Midwest,Yes,Excellent,4
984,WA,98205,West,Yes,Poor,4
2350,KY,40940,South,Yes,Excellent,4
640,NV,89101,West,Yes,Poor,4
2279,UT,84653,West,Yes,Excellent,4
1439,WV,26631,South,Yes,Good,3
1454,SC,29851,South,Yes,Excellent,3
2543,LA,71129,South,Yes,Excellent,2
2345,SD,57650,Midwest,Yes,Poor,4
1599,NC,28721,South,No,Excellent,4
2168,KS,66870,Midwest,Yes,Good,4
735,ID,83212,West,Yes,Excellent,4
390,CA,94087,West,Yes,Excellent,2
1792,TX,79936,South,Yes,Excellent,4
1862,TX,76543,South,Yes,Good,4
1664,OK,73112,South,Yes,Good,2
2266,LA,70431,South,No,Good,3
1051,OK,73488,South,Yes,Good,4
1233,TX,76577,South,Yes,Excellent,4
